OBJECT_NAME,OBJECT_ID,EPOCH,MEAN_MOTION,ECCENTRICITY,INCLINATION,RA_OF_ASC_NODE,ARG_OF_PERICENTER,MEAN_ANOMALY,EPHEMERIS_TYPE,CLASSIFICATION_TYPE,NORAD_CAT_ID,ELEMENT_SET_NO,REV_AT_EPOCH,BSTAR,MEAN_MOTION_DOT,MEAN_MOTION_DDOT
SWARM A,2013-067B,2026-06-08T18:24:13.927104,15.50786215,.0002986,87.3327,59.3689,92.0666,268.0937,0,U,39452,999,70494,.19512E-3,.11278E-3,0
SWARM C,2013-067C,2026-06-08T18:24:04.074048,15.50788849,.000295,87.3328,57.9502,92.0598,268.1001,0,U,39453,999,70490,.19631E-3,.11348E-3,0
BRITE-CA1 (TORONTO),2014-033L,2026-06-08T08:10:51.257856,14.72664800,.0077461,97.9729,288.4324,305.8308,53.5720,0,U,40020,999,64091,.11645E-3,.723E-5,0
OCO 2,2014-035A,2026-06-08T18:39:59.842080,14.57104711,.0001482,98.2016,101.1991,87.1297,273.0071,0,U,40059,999,63482,.11043E-3,.452E-5,0
BRITE-PL2 (HEWELIUSZ),2014-049B,2026-06-08T19:17:14.222976,14.94567394,.0015166,97.9089,271.7398,133.3878,226.8607,0,U,40119,999,64019,.22026E-3,.2327E-4,0
MMS 1,2015-011A,2026-06-08T22:00:03.000096,0.28305564,.8330182,72.1572,348.8965,167.2735,175.0841,0,U,40482,999,138,0,-.42E-6,0
MMS 2,2015-011B,2026-06-08T22:00:03.000096,0.28305982,.8331549,72.1626,348.8979,167.2768,175.0936,0,U,40483,999,138,0,-.42E-6,0
MMS 3,2015-011C,2026-06-08T22:00:03.000096,0.28305537,.8330154,72.1605,348.9032,167.2737,175.0690,0,U,40484,999,138,0,-.42E-6,0
MMS 4,2015-011D,2026-06-08T22:00:03.000096,0.28305926,.8330341,72.1619,348.8981,167.2790,175.0785,0,U,40485,999,138,0,-.42E-6,0
ASTROSAT,2015-052A,2026-06-08T06:41:10.601088,14.82493087,.0008543,5.9954,219.4891,268.4611,91.4538,0,U,40930,999,57850,.12145E-3,.167E-4,0
DAMPE,2015-078A,2026-06-08T20:47:55.250016,15.30764246,.0013713,97.4563,165.2928,102.7684,257.5091,0,U,41173,999,58327,.49141E-4,.1386E-4,0
PISAT,2016-059B,2026-06-08T11:50:20.037408,14.68969099,.0027774,97.8178,160.3198,231.5012,128.3703,0,U,41784,999,51846,.17847E-3,.1004E-4,0
HXMT (HUIYAN),2017-034A,2026-06-08T15:34:12.753408,15.18418509,.0030168,43.0130,230.5841,90.7810,269.6495,0,U,42758,999,49636,.24088E-3,.4863E-4,0
FLYING LAPTOP,2017-042G,2026-06-08T20:28:33.379968,15.01092236,.0019156,97.4659,315.7097,148.8782,211.3581,0,U,42831,999,48520,.28731E-3,.3633E-4,0
ZHANGHENG 1-01 (CSES-1),2018-015C,2026-06-08T20:21:41.427360,15.20707109,.0017162,97.6867,325.3419,297.8183,62.1312,0,U,43194,999,46337,.32048E-3,.7001E-4,0
SALSAT,2020-068K,2026-06-08T15:24:23.045760,15.29677178,.0008838,97.8856,162.1872,342.8345,17.2593,0,U,46495,999,31405,.28424E-3,.8099E-4,0
IXPE,2021-121A,2026-06-08T20:00:03.000384,15.10175119,.0007017,0.2304,20.3757,314.4759,176.3715,0,U,49954,999,521,.5857E-3,.10786E-3,0
SMILE,2026-109A,2026-05-24T15:40:35.120928,14.57062785,.00091232,70.0007,229.2745,259.5159,100.4951,0,U,69123,999,80,-.42378883E-3,-.1976E-4,0
