SWARM A                 
1 39452U 13067B   26159.76682786  .00011278  00000+0  19512-3 0  9992
2 39452  87.3327  59.3689 0002986  92.0666 268.0937 15.50786215704948
SWARM C                 
1 39453U 13067C   26159.76671382  .00011348  00000+0  19631-3 0  9993
2 39453  87.3328  57.9502 0002950  92.0598 268.1001 15.50788849704907
BRITE-CA1 (TORONTO)     
1 40020U 14033L   26159.34087105  .00000723  00000+0  11645-3 0  9999
2 40020  97.9729 288.4324 0077461 305.8308  53.5720 14.72664800640914
OCO 2                   
1 40059U 14035A   26159.77777595  .00000452  00000+0  11043-3 0  9990
2 40059  98.2016 101.1991 0001482  87.1297 273.0071 14.57104711634821
BRITE-PL2 (HEWELIUSZ)   
1 40119U 14049B   26159.80363684  .00002327  00000+0  22026-3 0  9992
2 40119  97.9089 271.7398 0015166 133.3878 226.8607 14.94567394640191
MMS 1                   
1 40482U 15011A   26159.91670139 -.00000042  00000+0  00000+0 0  9990
2 40482  72.1572 348.8965 8330182 167.2735 175.0841  0.28305564  1384
MMS 2                   
1 40483U 15011B   26159.91670139 -.00000042  00000+0  00000+0 0  9991
2 40483  72.1626 348.8979 8331549 167.2768 175.0936  0.28305982  1383
MMS 3                   
1 40484U 15011C   26159.91670139 -.00000042  00000+0  00000+0 0  9992
2 40484  72.1605 348.9032 8330154 167.2737 175.0690  0.28305537  1382
MMS 4                   
1 40485U 15011D   26159.91670139 -.00000042  00000+0  00000+0 0  9993
2 40485  72.1619 348.8981 8330341 167.2790 175.0785  0.28305926  1384
ASTROSAT                
1 40930U 15052A   26159.27859492  .00001670  00000+0  12145-3 0  9997
2 40930   5.9954 219.4891 0008543 268.4611  91.4538 14.82493087578503
DAMPE                   
1 41173U 15078A   26159.86661169  .00001386  00000+0  49141-4 0  9993
2 41173  97.4563 165.2928 0013713 102.7684 257.5091 15.30764246583270
PISAT                   
1 41784U 16059B   26159.49328747  .00001004  00000+0  17847-3 0  9996
2 41784  97.8178 160.3198 0027773 231.5012 128.3703 14.68969100518466
HXMT (HUIYAN)           
1 42758U 17034A   26159.64875872  .00004863  00000+0  24088-3 0  9996
2 42758  43.0130 230.5841 0030168  90.7810 269.6495 15.18418509496366
FLYING LAPTOP           
1 42831U 17042G   26159.85316412  .00003633  00000+0  28731-3 0  9993
2 42831  97.4659 315.7097 0019156 148.8782 211.3581 15.01092236485201
ZHANGHENG 1-01 (CSES-1) 
1 43194U 18015C   26159.84839615  .00007001  00000+0  32048-3 0  9990
2 43194  97.6867 325.3419 0017162 297.8183  62.1312 15.20707109463378
SALSAT                  
1 46495U 20068K   26159.64193340  .00008099  00000+0  28424-3 0  9995
2 46495  97.8856 162.1872 0008838 342.8345  17.2593 15.29677178314059
IXPE                    
1 49954U 21121A   26159.83336806  .00010786  00000+0  58570-3 0  9997
2 49954   0.2304  20.3757 0007017 314.4759 176.3715 15.10175119  5213
SMILE                   
1 69123U 26109A   26144.65318427 -.00001976  00000+0 -42379-3 0  9994
2 69123  70.0007 229.2745 0009123 259.5159 100.4951 14.57062785   802
